STARLINK-35607          
1 66163U 25240T   25323.81546734  .00059168  00000+0  10631-2 0  9999
2 66163  53.1599 214.0455 0000876  98.0246 262.0862 15.49328111  5159
STARLINK-35614          
1 66164U 25240U   25323.81478043  .00038673  00000+0  69952-3 0  9996
2 66164  53.1595 214.0393 0001229  93.1373 266.9777 15.49326670  5153
STARLINK-35575          
1 66165U 25240V   25323.81512469  .00064842  00000+0  11635-2 0  9999
2 66165  53.1598 214.0421 0001116  83.1527 276.9609 15.49328733  5151
STARLINK-35624          
1 66166U 25240W   25323.81409253  .00062012  00000+0  11133-2 0  9996
2 66166  53.1593 214.0352 0000693  92.7841 267.3247 15.49331247  5150
STARLINK-35641          
1 66167U 25240X   25323.81443502  .00055490  00000+0  99800-3 0  9992
2 66167  53.1592 214.0369 0000782 103.3954 256.7143 15.49328414  5150
STARLINK-35578          
1 66168U 25240Y   25323.81306213  .00055226  00000+0  99326-3 0  9990
2 66168  53.1594 214.0279 0000753 101.3789 258.7305 15.49330462  5153
STARLINK-35638          
1 66169U 25240Z   25323.81375069  .00066644  00000+0  11950-2 0  9998
2 66169  53.1599 214.0330 0001166  78.6295 281.4845 15.49334836  5155
STARLINK-35585          
1 66170U 25240AA  25323.81271889  .00043653  00000+0  78808-3 0  9996
2 66170  53.1597 214.0258 0001130  85.8688 274.2451 15.49326339  5153
STARLINK-35606          
1 66171U 25240AB  25323.81237566  .00067250  00000+0  12060-2 0  9997
2 66171  53.1595 214.0229 0000829  94.5972 265.5131 15.49329396  5151
STARLINK-35627          
1 66172U 25240AC  25323.81340365  .00066218  00000+0  11872-2 0  9993
2 66172  53.1595 214.0297 0000927 141.7209 218.3866 15.49341171  5150
STARLINK-35634          
1 66173U 25240AD  25323.81203147  .00059539  00000+0  10696-2 0  9991
2 66173  53.1596 214.0212 0000806  92.7569 267.3532 15.49330052  5159
HTV-X1                  
1 66174U 25241A   25323.31903918  .00014458  00000+0  26247-3 0  9992
2 66174  51.6333 258.3957 0004144  86.8503 273.2960 15.49817487  1452
