CCSDS_OMM_VERS = 2.0
CREATION_DATE  = 
ORIGINATOR     = 

OBJECT_NAME    = STARLINK-35607
OBJECT_ID      = 2025-240T
CENTER_NAME    = EARTH
REF_FRAME      = TEME
TIME_SYSTEM    = UTC
MEAN_ELEMENT_THEORY = SGP/SGP4

EPOCH          = 2025-11-19T19:34:16.378176
MEAN_MOTION    = 15.49328111
ECCENTRICITY   = .0000876
INCLINATION    = 53.1599
RA_OF_ASC_NODE = 214.0455
ARG_OF_PERICENTER = 98.0246
MEAN_ANOMALY   = 262.0862

EPHEMERIS_TYPE = 0
CLASSIFICATION_TYPE = U
NORAD_CAT_ID   = 66163
ELEMENT_SET_NO = 999
REV_AT_EPOCH   = 515
BSTAR          = .10631E-2
MEAN_MOTION_DOT = .59168E-3
MEAN_MOTION_DDOT = 0

CCSDS_OMM_VERS = 2.0
CREATION_DATE  = 
ORIGINATOR     = 

OBJECT_NAME    = STARLINK-35614
OBJECT_ID      = 2025-240U
CENTER_NAME    = EARTH
REF_FRAME      = TEME
TIME_SYSTEM    = UTC
MEAN_ELEMENT_THEORY = SGP/SGP4

EPOCH          = 2025-11-19T19:33:17.029152
MEAN_MOTION    = 15.49326670
ECCENTRICITY   = .0001229
INCLINATION    = 53.1595
RA_OF_ASC_NODE = 214.0393
ARG_OF_PERICENTER = 93.1373
MEAN_ANOMALY   = 266.9777

EPHEMERIS_TYPE = 0
CLASSIFICATION_TYPE = U
NORAD_CAT_ID   = 66164
ELEMENT_SET_NO = 999
REV_AT_EPOCH   = 515
BSTAR          = .69952E-3
MEAN_MOTION_DOT = .38673E-3
MEAN_MOTION_DDOT = 0

CCSDS_OMM_VERS = 2.0
CREATION_DATE  = 
ORIGINATOR     = 

OBJECT_NAME    = STARLINK-35575
OBJECT_ID      = 2025-240V
CENTER_NAME    = EARTH
REF_FRAME      = TEME
TIME_SYSTEM    = UTC
MEAN_ELEMENT_THEORY = SGP/SGP4

EPOCH          = 2025-11-19T19:33:46.773216
MEAN_MOTION    = 15.49328733
ECCENTRICITY   = .0001116
INCLINATION    = 53.1598
RA_OF_ASC_NODE = 214.0421
ARG_OF_PERICENTER = 83.1527
MEAN_ANOMALY   = 276.9609

EPHEMERIS_TYPE = 0
CLASSIFICATION_TYPE = U
NORAD_CAT_ID   = 66165
ELEMENT_SET_NO = 999
REV_AT_EPOCH   = 515
BSTAR          = .11635E-2
MEAN_MOTION_DOT = .64842E-3
MEAN_MOTION_DDOT = 0

CCSDS_OMM_VERS = 2.0
CREATION_DATE  = 
ORIGINATOR     = 

OBJECT_NAME    = STARLINK-35624
OBJECT_ID      = 2025-240W
CENTER_NAME    = EARTH
REF_FRAME      = TEME
TIME_SYSTEM    = UTC
MEAN_ELEMENT_THEORY = SGP/SGP4

EPOCH          = 2025-11-19T19:32:17.594592
MEAN_MOTION    = 15.49331247
ECCENTRICITY   = .0000693
INCLINATION    = 53.1593
RA_OF_ASC_NODE = 214.0352
ARG_OF_PERICENTER = 92.7841
MEAN_ANOMALY   = 267.3247

EPHEMERIS_TYPE = 0
CLASSIFICATION_TYPE = U
NORAD_CAT_ID   = 66166
ELEMENT_SET_NO = 999
REV_AT_EPOCH   = 515
BSTAR          = .11133E-2
MEAN_MOTION_DOT = .62012E-3
MEAN_MOTION_DDOT = 0

CCSDS_OMM_VERS = 2.0
CREATION_DATE  = 
ORIGINATOR     = 

OBJECT_NAME    = STARLINK-35641
OBJECT_ID      = 2025-240X
CENTER_NAME    = EARTH
REF_FRAME      = TEME
TIME_SYSTEM    = UTC
MEAN_ELEMENT_THEORY = SGP/SGP4

EPOCH          = 2025-11-19T19:32:47.185728
MEAN_MOTION    = 15.49328414
ECCENTRICITY   = .0000782
INCLINATION    = 53.1592
RA_OF_ASC_NODE = 214.0369
ARG_OF_PERICENTER = 103.3954
MEAN_ANOMALY   = 256.7143

EPHEMERIS_TYPE = 0
CLASSIFICATION_TYPE = U
NORAD_CAT_ID   = 66167
ELEMENT_SET_NO = 999
REV_AT_EPOCH   = 515
BSTAR          = .998E-3
MEAN_MOTION_DOT = .5549E-3
MEAN_MOTION_DDOT = 0

CCSDS_OMM_VERS = 2.0
CREATION_DATE  = 
ORIGINATOR     = 

OBJECT_NAME    = STARLINK-35578
OBJECT_ID      = 2025-240Y
CENTER_NAME    = EARTH
REF_FRAME      = TEME
TIME_SYSTEM    = UTC
MEAN_ELEMENT_THEORY = SGP/SGP4

EPOCH          = 2025-11-19T19:30:48.568032
MEAN_MOTION    = 15.49330462
ECCENTRICITY   = .0000753
INCLINATION    = 53.1594
RA_OF_ASC_NODE = 214.0279
ARG_OF_PERICENTER = 101.3789
MEAN_ANOMALY   = 258.7305

EPHEMERIS_TYPE = 0
CLASSIFICATION_TYPE = U
NORAD_CAT_ID   = 66168
ELEMENT_SET_NO = 999
REV_AT_EPOCH   = 515
BSTAR          = .99326E-3
MEAN_MOTION_DOT = .55226E-3
MEAN_MOTION_DDOT = 0

CCSDS_OMM_VERS = 2.0
CREATION_DATE  = 
ORIGINATOR     = 

OBJECT_NAME    = STARLINK-35638
OBJECT_ID      = 2025-240Z
CENTER_NAME    = EARTH
REF_FRAME      = TEME
TIME_SYSTEM    = UTC
MEAN_ELEMENT_THEORY = SGP/SGP4

EPOCH          = 2025-11-19T19:31:48.059616
MEAN_MOTION    = 15.49334836
ECCENTRICITY   = .0001166
INCLINATION    = 53.1599
RA_OF_ASC_NODE = 214.0330
ARG_OF_PERICENTER = 78.6295
MEAN_ANOMALY   = 281.4845

EPHEMERIS_TYPE = 0
CLASSIFICATION_TYPE = U
NORAD_CAT_ID   = 66169
ELEMENT_SET_NO = 999
REV_AT_EPOCH   = 515
BSTAR          = .1195E-2
MEAN_MOTION_DOT = .66644E-3
MEAN_MOTION_DDOT = 0

CCSDS_OMM_VERS = 2.0
CREATION_DATE  = 
ORIGINATOR     = 

OBJECT_NAME    = STARLINK-35585
OBJECT_ID      = 2025-240AA
CENTER_NAME    = EARTH
REF_FRAME      = TEME
TIME_SYSTEM    = UTC
MEAN_ELEMENT_THEORY = SGP/SGP4

EPOCH          = 2025-11-19T19:30:18.912096
MEAN_MOTION    = 15.49326339
ECCENTRICITY   = .000113
INCLINATION    = 53.1597
RA_OF_ASC_NODE = 214.0258
ARG_OF_PERICENTER = 85.8688
MEAN_ANOMALY   = 274.2451

EPHEMERIS_TYPE = 0
CLASSIFICATION_TYPE = U
NORAD_CAT_ID   = 66170
ELEMENT_SET_NO = 999
REV_AT_EPOCH   = 515
BSTAR          = .78808E-3
MEAN_MOTION_DOT = .43653E-3
MEAN_MOTION_DDOT = 0

CCSDS_OMM_VERS = 2.0
CREATION_DATE  = 
ORIGINATOR     = 

OBJECT_NAME    = STARLINK-35606
OBJECT_ID      = 2025-240AB
CENTER_NAME    = EARTH
REF_FRAME      = TEME
TIME_SYSTEM    = UTC
MEAN_ELEMENT_THEORY = SGP/SGP4

EPOCH          = 2025-11-19T19:29:49.257024
MEAN_MOTION    = 15.49329396
ECCENTRICITY   = .0000829
INCLINATION    = 53.1595
RA_OF_ASC_NODE = 214.0229
ARG_OF_PERICENTER = 94.5972
MEAN_ANOMALY   = 265.5131

EPHEMERIS_TYPE = 0
CLASSIFICATION_TYPE = U
NORAD_CAT_ID   = 66171
ELEMENT_SET_NO = 999
REV_AT_EPOCH   = 515
BSTAR          = .1206E-2
MEAN_MOTION_DOT = .6725E-3
MEAN_MOTION_DDOT = 0

CCSDS_OMM_VERS = 2.0
CREATION_DATE  = 
ORIGINATOR     = 

OBJECT_NAME    = STARLINK-35627
OBJECT_ID      = 2025-240AC
CENTER_NAME    = EARTH
REF_FRAME      = TEME
TIME_SYSTEM    = UTC
MEAN_ELEMENT_THEORY = SGP/SGP4

EPOCH          = 2025-11-19T19:31:18.075360
MEAN_MOTION    = 15.49341171
ECCENTRICITY   = .0000927
INCLINATION    = 53.1595
RA_OF_ASC_NODE = 214.0297
ARG_OF_PERICENTER = 141.7209
MEAN_ANOMALY   = 218.3866

EPHEMERIS_TYPE = 0
CLASSIFICATION_TYPE = U
NORAD_CAT_ID   = 66172
ELEMENT_SET_NO = 999
REV_AT_EPOCH   = 515
BSTAR          = .11872E-2
MEAN_MOTION_DOT = .66218E-3
MEAN_MOTION_DDOT = 0

CCSDS_OMM_VERS = 2.0
CREATION_DATE  = 
ORIGINATOR     = 

OBJECT_NAME    = STARLINK-35634
OBJECT_ID      = 2025-240AD
CENTER_NAME    = EARTH
REF_FRAME      = TEME
TIME_SYSTEM    = UTC
MEAN_ELEMENT_THEORY = SGP/SGP4

EPOCH          = 2025-11-19T19:29:19.519008
MEAN_MOTION    = 15.49330052
ECCENTRICITY   = .0000806
INCLINATION    = 53.1596
RA_OF_ASC_NODE = 214.0212
ARG_OF_PERICENTER = 92.7569
MEAN_ANOMALY   = 267.3532

EPHEMERIS_TYPE = 0
CLASSIFICATION_TYPE = U
NORAD_CAT_ID   = 66173
ELEMENT_SET_NO = 999
REV_AT_EPOCH   = 515
BSTAR          = .10696E-2
MEAN_MOTION_DOT = .59539E-3
MEAN_MOTION_DDOT = 0

CCSDS_OMM_VERS = 2.0
CREATION_DATE  = 
ORIGINATOR     = 

OBJECT_NAME    = HTV-X1
OBJECT_ID      = 2025-241A
CENTER_NAME    = EARTH
REF_FRAME      = TEME
TIME_SYSTEM    = UTC
MEAN_ELEMENT_THEORY = SGP/SGP4

EPOCH          = 2025-11-19T07:39:24.985152
MEAN_MOTION    = 15.49817487
ECCENTRICITY   = .00041444
INCLINATION    = 51.6333
RA_OF_ASC_NODE = 258.3957
ARG_OF_PERICENTER = 86.8503
MEAN_ANOMALY   = 273.2960

EPHEMERIS_TYPE = 0
CLASSIFICATION_TYPE = U
NORAD_CAT_ID   = 66174
ELEMENT_SET_NO = 999
REV_AT_EPOCH   = 145
BSTAR          = .26247255E-3
MEAN_MOTION_DOT = .14458E-3
MEAN_MOTION_DDOT = 0

